COSMOS 2541             
1 44552U 19065A   26093.00472061  .00000066  00000+0  00000+0 0  9991
2 44552  62.7096 163.9408 6482205 272.1760  20.4146  2.00623375 47719
FREGAT R/B              
1 44553U 19065B   26088.90500191  .00001281  00000+0  00000+0 0  9991
2 44553  63.3397 161.3968 6690924 261.3079  23.5188  2.01539187 47905
COSMOS 1897 DEB         
1 44572U 87096G   26095.22203275 -.00000046  00000+0  00000+0 0  9996
2 44572  10.9708 326.7999 0021036 299.2439 247.4255  1.00483629 70250
ARIANE 44LP DEB         
1 44573U 92060J   26095.55779840 -.00000750  00000+0 -76361-2 0  9995
2 44573   7.1706 356.3918 7181011 344.2563 215.8024  2.23469956 97911
LUCH DEB                
1 44582U 94082G   26095.55658506 -.00000306  00000+0  00000+0 0  9996
2 44582  14.6022 354.5953 0018675  89.4830  78.5145  1.00689681 45517
SL-12 DEB               
1 44588U 99027E   26094.58466098 -.00000079  00000+0  00000+0 0  9998
2 44588   7.2102 123.6189 3215330 158.6815 209.5101  1.46007490 65970
EUTELSAT 5 WEST B       
1 44624U 19067A   26095.81532892 -.00000040  00000+0  00000+0 0  9996
2 44624   0.0662  13.2924 0003469  12.4354  96.8962  1.00272960 23718
BREEZE-M R/B            
1 44626U 19067C   26095.30071148 -.00000192  00000+0  00000+0 0  9992
2 44626  23.1714  60.9740 6502416  11.7058 357.6865  0.93850674 20413
TJS-4                   
1 44637U 19070A   26095.91136294 -.00000168  00000+0  00000+0 0  9992
2 44637   0.0351  62.4683 0002503 350.5783 192.7786  1.00274082 23813
ATLAS 5 CENTAUR DEB     
1 44661U 18079X   26095.39993427 -.00000097  00000+0  00000+0 0  9999
2 44661  12.9331  67.0348 4630656 248.5003  57.0752  1.72653248 47344
ATLAS 5 CENTAUR DEB     
1 44665U 18079AB  26095.46693764 -.00000084  00000+0  00000+0 0  9998
2 44665  12.6040  78.5525 4655412 226.0015  84.7946  1.68623054 42149
ATLAS 5 CENTAUR DEB     
1 44673U 18079AK  26094.73416900 -.00000120  00000+0  00000+0 0  9992
2 44673  13.2943  49.4802 4706651 283.6804  29.7895  1.77547427 48562
ATLAS 5 CENTAUR DEB     
1 44679U 18079AR  26095.08933076 -.00000124  00000+0  00000+0 0  9999
2 44679  13.3560  45.1331 4692110 292.3029  25.3706  1.79403223 45369
ATLAS 5 CENTAUR DEB     
1 44680U 18079AS  26093.07166043 -.00000111  00000+0  00000+0 0  9996
2 44680  13.2535  54.8419 4691786 271.7675  37.1998  1.75589201 44148
ATLAS 5 CENTAUR DEB     
1 44685U 18079AX  26094.97311699 -.00000084  00000+0  00000+0 0  9999
2 44685  12.5130  79.7917 4563385 225.1376  87.3341  1.69261608 42260
ATLAS 5 CENTAUR DEB     
1 44686U 18079AY  26094.71297766 -.00000087  00000+0  00000+0 0  9993
2 44686  12.5452  78.6395 4656705 228.2976  81.3757  1.69097936 42339
ATLAS 5 CENTAUR DEB     
1 44693U 18079BF  26094.53350410 -.00000121  00000+0  00000+0 0  9996
2 44693  13.4225  46.8592 4682108 287.0528  28.1540  1.78463490 45562
