[{"OBJECT_NAME":"COSMOS 2541","OBJECT_ID":"2019-065A","EPOCH":"2026-04-03T00:06:47.860704","MEAN_MOTION":2.00623375,"ECCENTRICITY":0.64822058,"INCLINATION":62.7096,"RA_OF_ASC_NODE":163.9408,"ARG_OF_PERICENTER":272.176,"MEAN_ANOMALY":20.4146,"EPHEMERIS_TYPE":0,"CLASSIFICATION_TYPE":"U","NORAD_CAT_ID":44552,"ELEMENT_SET_NO":999,"REV_AT_EPOCH":4771,"BSTAR":0,"MEAN_MOTION_DOT":6.6e-7,"MEAN_MOTION_DDOT":0},{"OBJECT_NAME":"FREGAT R/B","OBJECT_ID":"2019-065B","EPOCH":"2026-03-29T21:43:12.165024","MEAN_MOTION":2.01539187,"ECCENTRICITY":0.66909248,"INCLINATION":63.3397,"RA_OF_ASC_NODE":161.3968,"ARG_OF_PERICENTER":261.3079,"MEAN_ANOMALY":23.5188,"EPHEMERIS_TYPE":0,"CLASSIFICATION_TYPE":"U","NORAD_CAT_ID":44553,"ELEMENT_SET_NO":999,"REV_AT_EPOCH":4790,"BSTAR":0,"MEAN_MOTION_DOT":1.281e-5,"MEAN_MOTION_DDOT":0},{"OBJECT_NAME":"COSMOS 1897 DEB","OBJECT_ID":"1987-096G","EPOCH":"2026-04-05T05:19:43.629600","MEAN_MOTION":1.00483629,"ECCENTRICITY":0.0021036,"INCLINATION":10.9708,"RA_OF_ASC_NODE":326.7999,"ARG_OF_PERICENTER":299.2439,"MEAN_ANOMALY":247.4255,"EPHEMERIS_TYPE":0,"CLASSIFICATION_TYPE":"U","NORAD_CAT_ID":44572,"ELEMENT_SET_NO":999,"REV_AT_EPOCH":7025,"BSTAR":0,"MEAN_MOTION_DOT":-4.6e-7,"MEAN_MOTION_DDOT":0},{"OBJECT_NAME":"ARIANE 44LP DEB","OBJECT_ID":"1992-060J","EPOCH":"2026-04-05T13:23:13.781760","MEAN_MOTION":2.23469956,"ECCENTRICITY":0.7181011,"INCLINATION":7.1706,"RA_OF_ASC_NODE":356.3918,"ARG_OF_PERICENTER":344.2563,"MEAN_ANOMALY":215.8024,"EPHEMERIS_TYPE":0,"CLASSIFICATION_TYPE":"U","NORAD_CAT_ID":44573,"ELEMENT_SET_NO":999,"REV_AT_EPOCH":9791,"BSTAR":-0.0076361,"MEAN_MOTION_DOT":-7.5e-6,"MEAN_MOTION_DDOT":0},{"OBJECT_NAME":"LUCH DEB","OBJECT_ID":"1994-082G","EPOCH":"2026-04-05T13:21:28.949184","MEAN_MOTION":1.00689681,"ECCENTRICITY":0.0018675,"INCLINATION":14.6022,"RA_OF_ASC_NODE":354.5953,"ARG_OF_PERICENTER":89.483,"MEAN_ANOMALY":78.5145,"EPHEMERIS_TYPE":0,"CLASSIFICATION_TYPE":"U","NORAD_CAT_ID":44582,"ELEMENT_SET_NO":999,"REV_AT_EPOCH":4551,"BSTAR":0,"MEAN_MOTION_DOT":-3.06e-6,"MEAN_MOTION_DDOT":0},{"OBJECT_NAME":"SL-12 DEB","OBJECT_ID":"1999-027E","EPOCH":"2026-04-04T14:01:54.708672","MEAN_MOTION":1.4600749,"ECCENTRICITY":0.321533,"INCLINATION":7.2102,"RA_OF_ASC_NODE":123.6189,"ARG_OF_PERICENTER":158.6815,"MEAN_ANOMALY":209.5101,"EPHEMERIS_TYPE":0,"CLASSIFICATION_TYPE":"U","NORAD_CAT_ID":44588,"ELEMENT_SET_NO":999,"REV_AT_EPOCH":6597,"BSTAR":0,"MEAN_MOTION_DOT":-7.9e-7,"MEAN_MOTION_DDOT":0},{"OBJECT_NAME":"EUTELSAT 5 WEST B","OBJECT_ID":"2019-067A","EPOCH":"2026-04-05T19:34:04.418688","MEAN_MOTION":1.0027296,"ECCENTRICITY":0.0003469,"INCLINATION":0.0662,"RA_OF_ASC_NODE":13.2924,"ARG_OF_PERICENTER":12.4354,"MEAN_ANOMALY":96.8962,"EPHEMERIS_TYPE":0,"CLASSIFICATION_TYPE":"U","NORAD_CAT_ID":44624,"ELEMENT_SET_NO":999,"REV_AT_EPOCH":2371,"BSTAR":0,"MEAN_MOTION_DOT":-4.0e-7,"MEAN_MOTION_DDOT":0},{"OBJECT_NAME":"BREEZE-M R/B","OBJECT_ID":"2019-067C","EPOCH":"2026-04-05T07:13:01.471872","MEAN_MOTION":0.93850674,"ECCENTRICITY":0.6502416,"INCLINATION":23.1714,"RA_OF_ASC_NODE":60.974,"ARG_OF_PERICENTER":11.7058,"MEAN_ANOMALY":357.6865,"EPHEMERIS_TYPE":0,"CLASSIFICATION_TYPE":"U","NORAD_CAT_ID":44626,"ELEMENT_SET_NO":999,"REV_AT_EPOCH":2041,"BSTAR":0,"MEAN_MOTION_DOT":-1.92e-6,"MEAN_MOTION_DDOT":0},{"OBJECT_NAME":"TJS-4","OBJECT_ID":"2019-070A","EPOCH":"2026-04-05T21:52:21.758016","MEAN_MOTION":1.00274082,"ECCENTRICITY":0.0002503,"INCLINATION":0.0351,"RA_OF_ASC_NODE":62.4683,"ARG_OF_PERICENTER":350.5783,"MEAN_ANOMALY":192.7786,"EPHEMERIS_TYPE":0,"CLASSIFICATION_TYPE":"U","NORAD_CAT_ID":44637,"ELEMENT_SET_NO":999,"REV_AT_EPOCH":2381,"BSTAR":0,"MEAN_MOTION_DOT":-1.68e-6,"MEAN_MOTION_DDOT":0},{"OBJECT_NAME":"ATLAS 5 CENTAUR DEB","OBJECT_ID":"2018-079X","EPOCH":"2026-04-05T09:35:54.320928","MEAN_MOTION":1.72653248,"ECCENTRICITY":0.4630656,"INCLINATION":12.9331,"RA_OF_ASC_NODE":67.0348,"ARG_OF_PERICENTER":248.5003,"MEAN_ANOMALY":57.0752,"EPHEMERIS_TYPE":0,"CLASSIFICATION_TYPE":"U","NORAD_CAT_ID":44661,"ELEMENT_SET_NO":999,"REV_AT_EPOCH":4734,"BSTAR":0,"MEAN_MOTION_DOT":-9.7e-7,"MEAN_MOTION_DDOT":0},{"OBJECT_NAME":"ATLAS 5 CENTAUR DEB","OBJECT_ID":"2018-079AB","EPOCH":"2026-04-05T11:12:23.412096","MEAN_MOTION":1.68623054,"ECCENTRICITY":0.4655412,"INCLINATION":12.604,"RA_OF_ASC_NODE":78.5525,"ARG_OF_PERICENTER":226.0015,"MEAN_ANOMALY":84.7946,"EPHEMERIS_TYPE":0,"CLASSIFICATION_TYPE":"U","NORAD_CAT_ID":44665,"ELEMENT_SET_NO":999,"REV_AT_EPOCH":4214,"BSTAR":0,"MEAN_MOTION_DOT":-8.4e-7,"MEAN_MOTION_DDOT":0},{"OBJECT_NAME":"ATLAS 5 CENTAUR DEB","OBJECT_ID":"2018-079AK","EPOCH":"2026-04-04T17:37:12.201600","MEAN_MOTION":1.77547427,"ECCENTRICITY":0.47066511,"INCLINATION":13.2943,"RA_OF_ASC_NODE":49.4802,"ARG_OF_PERICENTER":283.6804,"MEAN_ANOMALY":29.7895,"EPHEMERIS_TYPE":0,"CLASSIFICATION_TYPE":"U","NORAD_CAT_ID":44673,"ELEMENT_SET_NO":999,"REV_AT_EPOCH":4856,"BSTAR":0,"MEAN_MOTION_DOT":-1.2e-6,"MEAN_MOTION_DDOT":0},{"OBJECT_NAME":"ATLAS 5 CENTAUR DEB","OBJECT_ID":"2018-079AR","EPOCH":"2026-04-05T02:08:38.177664","MEAN_MOTION":1.79403223,"ECCENTRICITY":0.469211,"INCLINATION":13.356,"RA_OF_ASC_NODE":45.1331,"ARG_OF_PERICENTER":292.3029,"MEAN_ANOMALY":25.3706,"EPHEMERIS_TYPE":0,"CLASSIFICATION_TYPE":"U","NORAD_CAT_ID":44679,"ELEMENT_SET_NO":999,"REV_AT_EPOCH":4536,"BSTAR":0,"MEAN_MOTION_DOT":-1.24e-6,"MEAN_MOTION_DDOT":0},{"OBJECT_NAME":"ATLAS 5 CENTAUR DEB","OBJECT_ID":"2018-079AS","EPOCH":"2026-04-03T01:43:11.461152","MEAN_MOTION":1.75589201,"ECCENTRICITY":0.4691786,"INCLINATION":13.2535,"RA_OF_ASC_NODE":54.8419,"ARG_OF_PERICENTER":271.7675,"MEAN_ANOMALY":37.1998,"EPHEMERIS_TYPE":0,"CLASSIFICATION_TYPE":"U","NORAD_CAT_ID":44680,"ELEMENT_SET_NO":999,"REV_AT_EPOCH":4414,"BSTAR":0,"MEAN_MOTION_DOT":-1.11e-6,"MEAN_MOTION_DDOT":0},{"OBJECT_NAME":"ATLAS 5 CENTAUR DEB","OBJECT_ID":"2018-079AX","EPOCH":"2026-04-04T23:21:17.307936","MEAN_MOTION":1.69261608,"ECCENTRICITY":0.45633857,"INCLINATION":12.513,"RA_OF_ASC_NODE":79.7917,"ARG_OF_PERICENTER":225.1376,"MEAN_ANOMALY":87.3341,"EPHEMERIS_TYPE":0,"CLASSIFICATION_TYPE":"U","NORAD_CAT_ID":44685,"ELEMENT_SET_NO":999,"REV_AT_EPOCH":4226,"BSTAR":0,"MEAN_MOTION_DOT":-8.4e-7,"MEAN_MOTION_DDOT":0},{"OBJECT_NAME":"ATLAS 5 CENTAUR DEB","OBJECT_ID":"2018-079AY","EPOCH":"2026-04-04T17:06:41.269824","MEAN_MOTION":1.69097936,"ECCENTRICITY":0.4656705,"INCLINATION":12.5452,"RA_OF_ASC_NODE":78.6395,"ARG_OF_PERICENTER":228.2976,"MEAN_ANOMALY":81.3757,"EPHEMERIS_TYPE":0,"CLASSIFICATION_TYPE":"U","NORAD_CAT_ID":44686,"ELEMENT_SET_NO":999,"REV_AT_EPOCH":4233,"BSTAR":0,"MEAN_MOTION_DOT":-8.7e-7,"MEAN_MOTION_DDOT":0},{"OBJECT_NAME":"ATLAS 5 CENTAUR DEB","OBJECT_ID":"2018-079BF","EPOCH":"2026-04-04T12:48:14.754240","MEAN_MOTION":1.7846349,"ECCENTRICITY":0.46821086,"INCLINATION":13.4225,"RA_OF_ASC_NODE":46.8592,"ARG_OF_PERICENTER":287.0528,"MEAN_ANOMALY":28.154,"EPHEMERIS_TYPE":0,"CLASSIFICATION_TYPE":"U","NORAD_CAT_ID":44693,"ELEMENT_SET_NO":999,"REV_AT_EPOCH":4556,"BSTAR":0,"MEAN_MOTION_DOT":-1.21e-6,"MEAN_MOTION_DDOT":0}]
